NORAD_CAT_ID,OBJECT_NAME,OBJECT_TYPE,EPOCH,MEAN_MOTION,ECCENTRICITY,INCLINATION,RA_OF_ASC_NODE,ARG_OF_PERICENTER,MEAN_ANOMALY,BSTAR,MEAN_MOTION_DOT,MEAN_MOTION_DDOT,TLE_LINE0,TLE_LINE1,TLE_LINE2,SEMIMAJOR_AXIS,PERIOD,APOGEE,PERIGEE,DECAYED
55675.0,STARLINK-5232,PAYLOAD,2023-04-01 20:37:14,15.69934787,0.0002894,70.0012,28.7755,253.8053,106.2824,-3.8794e-06,-6.79e-06,0.0,0 STARLINK-5232,1 55675U 23021AZ  23091.85919477 -.00000679  00000-0 -38794-5 0  9991,2 55675  70.0012  28.7755 0002894 253.8053 106.2824 15.69934787  7619,6737.221,91.724,361.035,357.136,0.0
55675.0,STARLINK-5232,PAYLOAD,2023-04-02 05:47:45,15.6992337,0.0002966,70.001,27.6964,264.8468,95.2389,-7.7029e-06,-1.138e-05,0.0,0 STARLINK-5232,1 55675U 23021AZ  23092.24150015 -.00001138  00000-0 -77029-5 0  9995,2 55675  70.0010  27.6964 0002966 264.8468  95.2389 15.69923370  7360,6737.253,91.724,361.117,357.12,0.0
55675.0,STARLINK-5232,PAYLOAD,2023-04-02 07:19:30,15.6992326,0.0002939,70.0015,27.516,278.3161,81.7701,2.9636e-06,1.44e-06,0.0,0 STARLINK-5232,1 55675U 23021AZ  23092.30521854  .00000144  00000-0  29636-5 0  9990,2 55675  70.0015  27.5160 0002939 278.3161  81.7701 15.69923260  7683,6737.254,91.724,361.099,357.138,0.0
55675.0,STARLINK-5232,PAYLOAD,2023-04-03 07:47:32,15.69927257,0.0003545,70.0005,24.654,259.3676,100.712,4.7563e-06,3.59e-06,0.0,0 STARLINK-5232,1 55675U 23021AZ  23093.32468221  .00000359  00000-0  47563-5 0  9998,2 55675  70.0005  24.6540 0003545 259.3676 100.7120 15.69927257  7537,6737.242,91.724,361.495,356.719,0.0
55675.0,STARLINK-5232,PAYLOAD,2023-04-03 21:33:19,15.69919432,0.0003476,70.0006,23.0423,258.5418,101.5387,1.1285e-05,1.144e-05,0.0,0 STARLINK-5232,1 55675U 23021AZ  23093.89813751  .00001144  00000-0  11285-4 0  9996,2 55675  70.0006  23.0423 0003476 258.5418 101.5387 15.69919432  7933,6737.265,91.724,361.471,356.788,0.0
55675.0,STARLINK-5232,PAYLOAD,2023-04-04 06:43:49,15.69920688,0.0002615,70.0013,21.9656,257.5961,102.4943,1.2361e-05,1.274e-05,0.0,0 STARLINK-5232,1 55675U 23021AZ  23094.28043735  .00001274  00000-0  12361-4 0  9997,2 55675  70.0013  21.9656 0002615 257.5961 102.4943 15.69920688  7687,6737.261,91.724,360.888,357.364,0.0
55675.0,STARLINK-5232,PAYLOAD,2023-04-04 20:29:36,15.69900355,0.0002907,70.003,20.3565,255.0012,105.0862,0.00013944,0.00016569,0.0,0 STARLINK-5232,1 55675U 23021AZ  23094.85389602  .00016569  00000-0  13944-3 0  9996,2 55675  70.0030  20.3565 0002907 255.0012 105.0862 15.69900355  7770,6737.319,91.726,361.143,357.226,0.0
55675.0,STARLINK-5232,PAYLOAD,2023-04-04 22:01:21,15.69912759,0.0004028,70.0008,20.1763,270.1731,89.9003,-3.1748e-06,-5.95e-06,0.0,0 STARLINK-5232,1 55675U 23021AZ  23094.91760673 -.00000595  00000-0 -31748-5 0  9992,2 55675  70.0008  20.1763 0004028 270.1731  89.9003 15.69912759  8099,6737.284,91.725,361.862,356.435,0.0
55675.0,STARLINK-5232,PAYLOAD,2023-04-05 04:08:21,15.69918755,0.0003153,70.0008,19.4604,258.5501,101.5341,1.2825e-06,-5.8e-07,0.0,0 STARLINK-5232,1 55675U 23021AZ  23095.17247095 -.00000058  00000-0  12825-5 0  9997,2 55675  70.0008  19.4604 0003153 258.5501 101.5341 15.69918755  7825,6737.266,91.724,361.256,357.007,0.0
55675.0,STARLINK-5232,PAYLOAD,2023-04-05 07:11:51,15.69922885,0.0003221,70.0006,19.1017,260.9189,99.1642,9.4801e-06,9.27e-06,0.0,0 STARLINK-5232,1 55675U 23021AZ  23095.29990279  .00000927  00000-0  94801-5 0  9997,2 55675  70.0006  19.1017 0003221 260.9189  99.1642 15.69922885  8155,6737.255,91.724,361.29,356.95,0.0
55675.0,STARLINK-5232,PAYLOAD,2023-04-05 20:57:37,15.69922483,0.0002917,70.0011,17.4891,255.0559,105.0314,7.1626e-06,6.49e-06,0.0,0 STARLINK-5232,1 55675U 23021AZ  23095.87335496  .00000649  00000-0  71626-5 0  9996,2 55675  70.0011  17.4891 0002917 255.0559 105.0314 15.69922483  8246,6737.256,91.724,361.086,357.156,0.0
55675.0,STARLINK-5232,PAYLOAD,2023-04-06 06:08:08,15.69928721,0.0003078,70.0013,16.4147,261.1106,98.9742,9.9852e-06,9.88e-06,0.0,0 STARLINK-5232,1 55675U 23021AZ  23096.25565289  .00000988  00000-0  99852-5 0  9991,2 55675  70.0013  16.4147 0003078 261.1106  98.9742 15.69928721  7993,6737.238,91.724,361.177,357.029,0.0
55675.0,STARLINK-5232,PAYLOAD,2023-04-07 05:04:25,15.6992544,0.0003089,70.0027,13.7271,264.0701,96.0142,2.6821e-05,3.014e-05,0.0,0 STARLINK-5232,1 55675U 23021AZ  23097.21140621  .00003014  00000-0  26821-4 0  9995,2 55675  70.0027  13.7271 0003089 264.0701  96.0142 15.69925440  8147,6737.247,91.724,361.193,357.031,0.0
55675.0,STARLINK-5232,PAYLOAD,2023-04-07 17:18:25,15.69949514,0.0003769,70.0028,12.2961,282.6227,77.4547,6.6088e-05,7.75e-05,0.0,0 STARLINK-5232,1 55675U 23021AZ  23097.72112895  .00007750  00000-0  66088-4 0  9993,2 55675  70.0028  12.2961 0003769 282.6227  77.4547 15.69949514  8221,6737.178,91.723,361.583,356.504,0.0
55675.0,STARLINK-5232,PAYLOAD,2023-04-08 04:00:42,15.69885813,0.0003291,70.0028,11.0416,273.5001,86.5818,-0.00010916,-0.00013296,0.0,0 STARLINK-5232,1 55675U 23021AZ  23098.16716433 -.00013296  00000-0 -10916-3 0  9992,2 55675  70.0028  11.0416 0003291 273.5001  86.5818 15.69885813  8292,6737.361,91.726,361.443,357.008,0.0
55675.0,STARLINK-5232,PAYLOAD,2023-04-08 13:11:13,15.69906573,0.0003924,70.0015,9.965,278.83,81.2451,-4.1388e-05,-5.183e-05,0.0,0 STARLINK-5232,1 55675U 23021AZ  23098.54945910 -.00005183  00000-0 -41388-4 0  9992,2 55675  70.0015   9.9650 0003924 278.8300  81.2451 15.69906573  8356,6737.301,91.725,361.81,356.523,0.0
55675.0,STARLINK-5232,PAYLOAD,2023-04-09 01:25:13,15.69927793,0.0003264,70.0022,8.5346,267.4449,92.6373,9.966e-06,9.86e-06,0.0,0 STARLINK-5232,1 55675U 23021AZ  23099.05918547  .00000986  00000-0  99660-5 0  9996,2 55675  70.0022   8.5346 0003264 267.4449  92.6373 15.69927793  8431,6737.241,91.724,361.305,356.907,0.0
55675.0,STARLINK-5232,PAYLOAD,2023-04-09 21:18:00,15.69924775,0.0004305,70.0029,6.2051,274.6889,85.3814,9.7633e-06,9.61e-06,0.0,0 STARLINK-5232,1 55675U 23021AZ  23099.88750530  .00000961  00000-0  97633-5 0  9994,2 55675  70.0029   6.2051 0004305 274.6889  85.3814 15.69924775  8561,6737.249,91.724,362.015,356.214,0.0
55675.0,STARLINK-5232,PAYLOAD,2023-04-10 03:25:00,15.69928548,0.0003884,70.0024,5.488,264.1357,95.9396,2.642e-05,2.966e-05,0.0,0 STARLINK-5232,1 55675U 23021AZ  23100.14237062  .00002966  00000-0  26420-4 0  9998,2 55675  70.0024   5.4880 0003884 264.1357  95.9396 15.69928548  8915,6737.238,91.724,361.72,356.487,0.0
55675.0,STARLINK-5232,PAYLOAD,2023-04-10 17:10:37,15.70114331,0.0003617,70.0005,3.8729,249.137,110.9439,0.00038415,0.00046604,0.0,0 STARLINK-5232,1 55675U 23021AZ  23100.71571204  .00046604  00000-0  38415-3 0  9993,2 55675  70.0005   3.8729 0003617 249.1370 110.9439 15.70114331  8690,6736.707,91.713,361.009,356.135,0.0
55675.0,STARLINK-5232,PAYLOAD,2023-04-11 02:21:06,15.69994913,0.0003829,70.0028,2.802,237.1251,122.9576,-9.1606e-05,-0.00011247,0.0,0 STARLINK-5232,1 55675U 23021AZ  23101.09799395 -.00011247  00000-0 -91606-4 0  9997,2 55675  70.0028   2.8020 0003829 237.1251 122.9576 15.69994913  9065,6737.049,91.72,361.493,356.334,0.0
55675.0,STARLINK-5232,PAYLOAD,2023-04-11 16:07:05,15.69869872,0.0003689,70.0028,1.191,239.3603,120.7229,-0.00010482,-0.0001277,0.0,0 STARLINK-5232,1 55675U 23021AZ  23101.67159462 -.00012770  00000-0 -10482-3 0  9990,2 55675  70.0028   1.1910 0003689 239.3603 120.7229 15.69869872  9150,6737.406,91.727,361.757,356.786,0.0
55675.0,STARLINK-5232,PAYLOAD,2023-04-12 01:17:34,15.69941457,0.0004674,70.0033,0.1159,225.484,134.5974,4.4304e-05,5.122e-05,0.0,0 STARLINK-5232,1 55675U 23021AZ  23102.05386584  .00005122  00000-0  44304-4 0  9992,2 55675  70.0033   0.1159 0004674 225.4840 134.5974 15.69941457  9211,6737.201,91.723,362.215,355.918,0.0
55675.0,STARLINK-5232,PAYLOAD,2023-04-12 16:35:07,15.69881306,0.0003557,70.0024,358.3241,267.687,92.3919,-0.00010101,-0.00012319,0.0,0 STARLINK-5232,1 55675U 23021AZ  23102.69105902 -.00012319  00000-0 -10101-3 0  9990,2 55675  70.0024 358.3241 0003557 267.6870  92.3919 15.69881306  9004,6737.374,91.727,361.635,356.842,0.0
55675.0,STARLINK-5232,PAYLOAD,2023-04-13 03:17:22,15.69926375,0.0002779,70.0027,357.0675,272.5915,87.4963,1.9129e-05,2.088e-05,0.0,0 STARLINK-5232,1 55675U 23021AZ  23103.13706165  .00002088  00000-0  19129-4 0  9998,2 55675  70.0027 357.0675 0002779 272.5915  87.4963 15.69926375  9385,6737.245,91.724,360.982,357.237,0.0
55675.0,STARLINK-5232,PAYLOAD,2023-04-13 20:06:37,15.69962996,0.0003843,70.0019,355.0948,273.764,86.3116,0.00019138,0.00022901,0.0,0 STARLINK-5232,1 55675U 23021AZ  23103.83793506  .00022901  00000-0  19138-3 0  9995,2 55675  70.0019 355.0948 0003843 273.7640  86.3116 15.69962996  9183,6737.14,91.722,361.594,356.416,0.0
55675.0,STARLINK-5232,PAYLOAD,2023-04-14 02:13:36,15.70012467,0.0003692,70.0008,354.3798,276.46,83.6175,0.00023979,0.00028826,0.0,0 STARLINK-5232,1 55675U 23021AZ  23104.09278245  .00028826  00000-0  23979-3 0  9992,2 55675  70.0008 354.3798 0003692 276.4600  83.6175 15.70012467  9225,6736.998,91.719,361.351,356.376,0.0
55675.0,STARLINK-5232,PAYLOAD,2023-04-14 12:55:55,15.6990686,0.0003459,70.0017,353.1257,276.7852,83.295,-4.5708e-05,-5.701e-05,0.0,0 STARLINK-5232,1 55675U 23021AZ  23104.53883743 -.00005701  00000-0 -45708-4 0  9990,2 55675  70.0017 353.1257 0003459 276.7852  83.2950 15.69906860  9601,6737.3,91.725,361.496,356.835,0.0
55675.0,STARLINK-5232,PAYLOAD,2023-04-14 15:59:25,15.69930553,0.00036,70.0004,352.7674,263.1654,96.9133,2.9321e-05,3.315e-05,0.0,0 STARLINK-5232,1 55675U 23021AZ  23104.66626394  .00003315  00000-0  29321-4 0  9991,2 55675  70.0004 352.7674 0003600 263.1654  96.9133 15.69930553  9311,6737.233,91.724,361.523,356.672,0.0
55675.0,STARLINK-5232,PAYLOAD,2023-04-15 02:41:41,15.6990173,0.0003222,70.0001,351.5134,274.9398,85.143,-5.7257e-05,-7.085e-05,0.0,0 STARLINK-5232,1 55675U 23021AZ  23105.11228678 -.00007085  00000-0 -57257-4 0  9994,2 55675  70.0001 351.5134 0003222 274.9398  85.1430 15.69901730  9697,6737.315,91.725,361.351,357.009,0.0
